[{"OBJECT_NAME":"FENGYUN 2G","OBJECT_ID":"2014-090A","EPOCH":"2023-09-23T11:52:00.710688","MEAN_MOTION":1.00270287,"ECCENTRICITY":4.8e-5,"INCLINATION":3.1002,"RA_OF_ASC_NODE":84.5783,"ARG_OF_PERICENTER":153.6535,"MEAN_ANOMALY":41.6714,"EPHEMERIS_TYPE":0,"CLASSIFICATION_TYPE":"U","NORAD_CAT_ID":40367,"ELEMENT_SET_NO":999,"REV_AT_EPOCH":3203,"BSTAR":0,"MEAN_MOTION_DOT":-3.05e-6,"MEAN_MOTION_DDOT":0},{"OBJECT_NAME":"MUOS-3","OBJECT_ID":"2015-002A","EPOCH":"2023-09-23T09:35:29.041152","MEAN_MOTION":1.00273359,"ECCENTRICITY":0.0059285,"INCLINATION":2.8905,"RA_OF_ASC_NODE":28.5965,"ARG_OF_PERICENTER":177.9505,"MEAN_ANOMALY":283.8246,"EPHEMERIS_TYPE":0,"CLASSIFICATION_TYPE":"U","NORAD_CAT_ID":40374,"ELEMENT_SET_NO":999,"REV_AT_EPOCH":3158,"BSTAR":0,"MEAN_MOTION_DOT":-1.29e-6,"MEAN_MOTION_DDOT":0},{"OBJECT_NAME":"INMARSAT 5-F2","OBJECT_ID":"2015-005A","EPOCH":"2023-09-24T00:52:59.526048","MEAN_MOTION":1.00269104,"ECCENTRICITY":9.6e-6,"INCLINATION":0.0137,"RA_OF_ASC_NODE":191.2198,"ARG_OF_PERICENTER":298.3226,"MEAN_ANOMALY":191.329,"EPHEMERIS_TYPE":0,"CLASSIFICATION_TYPE":"U","NORAD_CAT_ID":40384,"ELEMENT_SET_NO":999,"REV_AT_EPOCH":3167,"BSTAR":0,"MEAN_MOTION_DOT":-2.91e-6,"MEAN_MOTION_DDOT":0},{"OBJECT_NAME":"ABS-3A","OBJECT_ID":"2015-010A","EPOCH":"2023-09-24T02:51:09.707040","MEAN_MOTION":1.0027162,"ECCENTRICITY":0.0001821,"INCLINATION":0.0048,"RA_OF_ASC_NODE":189.8325,"ARG_OF_PERICENTER":257.6949,"MEAN_ANOMALY":314.9756,"EPHEMERIS_TYPE":0,"CLASSIFICATION_TYPE":"U","NORAD_CAT_ID":40424,"ELEMENT_SET_NO":999,"REV_AT_EPOCH":3137,"BSTAR":0,"MEAN_MOTION_DOT":-3.2e-7,"MEAN_MOTION_DDOT":0},{"OBJECT_NAME":"EUTELSAT 115 WEST B","OBJECT_ID":"2015-010B","EPOCH":"2023-09-24T04:54:17.265600","MEAN_MOTION":1.00271004,"ECCENTRICITY":1.56e-5,"INCLINATION":0.0371,"RA_OF_ASC_NODE":21.9655,"ARG_OF_PERICENTER":251.7098,"MEAN_ANOMALY":47.7858,"EPHEMERIS_TYPE":0,"CLASSIFICATION_TYPE":"U","NORAD_CAT_ID":40425,"ELEMENT_SET_NO":999,"REV_AT_EPOCH":3143,"BSTAR":0,"MEAN_MOTION_DOT":-3.1e-7,"MEAN_MOTION_DDOT":0},{"OBJECT_NAME":"EXPRESS-AM7","OBJECT_ID":"2015-012A","EPOCH":"2023-09-23T18:27:29.891808","MEAN_MOTION":1.00269299,"ECCENTRICITY":0.0002694,"INCLINATION":0.0182,"RA_OF_ASC_NODE":213.2852,"ARG_OF_PERICENTER":328.8126,"MEAN_ANOMALY":137.1409,"EPHEMERIS_TYPE":0,"CLASSIFICATION_TYPE":"U","NORAD_CAT_ID":40505,"ELEMENT_SET_NO":999,"REV_AT_EPOCH":3135,"BSTAR":0,"MEAN_MOTION_DOT":1.47e-6,"MEAN_MOTION_DDOT":0},{"OBJECT_NAME":"IRNSS-1D","OBJECT_ID":"2015-018A","EPOCH":"2023-09-23T21:14:42.635616","MEAN_MOTION":1.00267128,"ECCENTRICITY":0.0019356,"INCLINATION":28.0351,"RA_OF_ASC_NODE":257.3034,"ARG_OF_PERICENTER":190.0863,"MEAN_ANOMALY":345.4253,"EPHEMERIS_TYPE":0,"CLASSIFICATION_TYPE":"U","NORAD_CAT_ID":40547,"ELEMENT_SET_NO":999,"REV_AT_EPOCH":3124,"BSTAR":0,"MEAN_MOTION_DOT":-2.72e-6,"MEAN_MOTION_DDOT":0},{"OBJECT_NAME":"BEIDOU-3S IGSO-1S","OBJECT_ID":"2015-019A","EPOCH":"2023-09-23T14:10:55.350624","MEAN_MOTION":1.00251948,"ECCENTRICITY":0.0040809,"INCLINATION":51.066,"RA_OF_ASC_NODE":307.3463,"ARG_OF_PERICENTER":197.0394,"MEAN_ANOMALY":162.825,"EPHEMERIS_TYPE":0,"CLASSIFICATION_TYPE":"U","NORAD_CAT_ID":40549,"ELEMENT_SET_NO":999,"REV_AT_EPOCH":3106,"BSTAR":0,"MEAN_MOTION_DOT":-1.28e-6,"MEAN_MOTION_DDOT":0},{"OBJECT_NAME":"THOR 7","OBJECT_ID":"2015-022A","EPOCH":"2023-09-23T06:13:39.064224","MEAN_MOTION":1.00271428,"ECCENTRICITY":0.0002677,"INCLINATION":0.0123,"RA_OF_ASC_NODE":179.8296,"ARG_OF_PERICENTER":359.8751,"MEAN_ANOMALY":274.9102,"EPHEMERIS_TYPE":0,"CLASSIFICATION_TYPE":"U","NORAD_CAT_ID":40613,"ELEMENT_SET_NO":999,"REV_AT_EPOCH":3080,"BSTAR":0,"MEAN_MOTION_DOT":-1.0e-7,"MEAN_MOTION_DDOT":0},{"OBJECT_NAME":"TURKMENALEM52E\/MONACOSAT","OBJECT_ID":"2015-023A","EPOCH":"2023-09-23T11:38:13.648416","MEAN_MOTION":1.00269746,"ECCENTRICITY":0.0002594,"INCLINATION":0.0173,"RA_OF_ASC_NODE":172.8726,"ARG_OF_PERICENTER":1.0908,"MEAN_ANOMALY":54.7035,"EPHEMERIS_TYPE":0,"CLASSIFICATION_TYPE":"U","NORAD_CAT_ID":40617,"ELEMENT_SET_NO":999,"REV_AT_EPOCH":3082,"BSTAR":0,"MEAN_MOTION_DOT":1.01e-6,"MEAN_MOTION_DDOT":0},{"OBJECT_NAME":"DIRECTV 15","OBJECT_ID":"2015-026A","EPOCH":"2023-09-23T16:03:15.807744","MEAN_MOTION":1.0027123,"ECCENTRICITY":7.03e-5,"INCLINATION":0.0181,"RA_OF_ASC_NODE":115.3451,"ARG_OF_PERICENTER":298.7649,"MEAN_ANOMALY":86.1125,"EPHEMERIS_TYPE":0,"CLASSIFICATION_TYPE":"U","NORAD_CAT_ID":40663,"ELEMENT_SET_NO":999,"REV_AT_EPOCH":3053,"BSTAR":0,"MEAN_MOTION_DOT":-1.06e-6,"MEAN_MOTION_DDOT":0},{"OBJECT_NAME":"SKY MEXICO-1","OBJECT_ID":"2015-026B","EPOCH":"2023-09-23T12:35:42.765792","MEAN_MOTION":1.00272306,"ECCENTRICITY":0.0002191,"INCLINATION":0.0156,"RA_OF_ASC_NODE":238.1724,"ARG_OF_PERICENTER":301.5451,"MEAN_ANOMALY":292.5638,"EPHEMERIS_TYPE":0,"CLASSIFICATION_TYPE":"U","NORAD_CAT_ID":40664,"ELEMENT_SET_NO":999,"REV_AT_EPOCH":3053,"BSTAR":0,"MEAN_MOTION_DOT":-2.38e-6,"MEAN_MOTION_DDOT":0},{"OBJECT_NAME":"METEOSAT-11 (MSG-4)","OBJECT_ID":"2015-034A","EPOCH":"2023-09-23T18:18:43.577568","MEAN_MOTION":1.00266171,"ECCENTRICITY":0.0001465,"INCLINATION":0.7721,"RA_OF_ASC_NODE":54.9104,"ARG_OF_PERICENTER":232.5457,"MEAN_ANOMALY":358.9273,"EPHEMERIS_TYPE":0,"CLASSIFICATION_TYPE":"U","NORAD_CAT_ID":40732,"ELEMENT_SET_NO":999,"REV_AT_EPOCH":3000,"BSTAR":0,"MEAN_MOTION_DOT":5.8e-7,"MEAN_MOTION_DDOT":0},{"OBJECT_NAME":"STAR ONE C4","OBJECT_ID":"2015-034B","EPOCH":"2023-09-23T12:27:42.852672","MEAN_MOTION":1.00270072,"ECCENTRICITY":0.0002031,"INCLINATION":0.0438,"RA_OF_ASC_NODE":6.4267,"ARG_OF_PERICENTER":212.441,"MEAN_ANOMALY":260.1783,"EPHEMERIS_TYPE":0,"CLASSIFICATION_TYPE":"U","NORAD_CAT_ID":40733,"ELEMENT_SET_NO":999,"REV_AT_EPOCH":3001,"BSTAR":0,"MEAN_MOTION_DOT":-2.68e-6,"MEAN_MOTION_DDOT":0},{"OBJECT_NAME":"WGS F7 (USA 263)","OBJECT_ID":"2015-036A","EPOCH":"2023-09-23T18:17:42.523008","MEAN_MOTION":1.00269597,"ECCENTRICITY":1.9e-6,"INCLINATION":0.0163,"RA_OF_ASC_NODE":171.8573,"ARG_OF_PERICENTER":72.4851,"MEAN_ANOMALY":207.4213,"EPHEMERIS_TYPE":0,"CLASSIFICATION_TYPE":"U","NORAD_CAT_ID":40746,"ELEMENT_SET_NO":999,"REV_AT_EPOCH":2986,"BSTAR":0,"MEAN_MOTION_DOT":1.3e-7,"MEAN_MOTION_DDOT":0},{"OBJECT_NAME":"INTELSAT 34 (IS-34)","OBJECT_ID":"2015-039A","EPOCH":"2023-09-24T00:52:52.008384","MEAN_MOTION":1.00271811,"ECCENTRICITY":0.0001487,"INCLINATION":0.0478,"RA_OF_ASC_NODE":292.7308,"ARG_OF_PERICENTER":100.9829,"MEAN_ANOMALY":286.636,"EPHEMERIS_TYPE":0,"CLASSIFICATION_TYPE":"U","NORAD_CAT_ID":40874,"ELEMENT_SET_NO":999,"REV_AT_EPOCH":2961,"BSTAR":0,"MEAN_MOTION_DOT":-2.91e-6,"MEAN_MOTION_DDOT":0},{"OBJECT_NAME":"EUTELSAT 8 WEST B","OBJECT_ID":"2015-039B","EPOCH":"2023-09-23T09:37:51.898368","MEAN_MOTION":1.00271215,"ECCENTRICITY":0.0002906,"INCLINATION":0.0672,"RA_OF_ASC_NODE":359.2403,"ARG_OF_PERICENTER":171.0449,"MEAN_ANOMALY":328.1643,"EPHEMERIS_TYPE":0,"CLASSIFICATION_TYPE":"U","NORAD_CAT_ID":40875,"ELEMENT_SET_NO":999,"REV_AT_EPOCH":2964,"BSTAR":0,"MEAN_MOTION_DOT":-6.8e-7,"MEAN_MOTION_DDOT":0}]