FENGYUN 2G              
1 40367U 14090A   23266.49445267 -.00000305  00000+0  00000+0 0  9991
2 40367   3.1002  84.5783 0000480 153.6535  41.6714  1.00270287 32031
MUOS-3                  
1 40374U 15002A   23266.39964168 -.00000129  00000+0  00000+0 0  9992
2 40374   2.8905  28.5965 0059285 177.9505 283.8246  1.00273359 31582
INMARSAT 5-F2           
1 40384U 15005A   23267.03680007 -.00000291  00000+0  00000+0 0  9995
2 40384   0.0137 191.2198 0000096 298.3226 191.3290  1.00269104 31675
ABS-3A                  
1 40424U 15010A   23267.11886235 -.00000032  00000+0  00000+0 0  9999
2 40424   0.0048 189.8325 0001821 257.6949 314.9756  1.00271620 31376
EUTELSAT 115 WEST B     
1 40425U 15010B   23267.20436650 -.00000031  00000+0  00000+0 0  9991
2 40425   0.0371  21.9655 0000156 251.7098  47.7858  1.00271004 31435
EXPRESS-AM7             
1 40505U 15012A   23266.76909597  .00000147  00000+0  00000+0 0  9994
2 40505   0.0182 213.2852 0002694 328.8126 137.1409  1.00269299 31356
IRNSS-1D                
1 40547U 15018A   23266.88521569 -.00000272  00000+0  00000+0 0  9998
2 40547  28.0351 257.3034 0019356 190.0863 345.4253  1.00267128 31249
BEIDOU-3S IGSO-1S       
1 40549U 15019A   23266.59091841 -.00000128  00000+0  00000+0 0  9994
2 40549  51.0660 307.3463 0040809 197.0394 162.8250  1.00251948 31066
THOR 7                  
1 40613U 15022A   23266.25947991 -.00000010  00000+0  00000+0 0  9999
2 40613   0.0123 179.8296 0002677 359.8751 274.9102  1.00271428 30805
TURKMENALEM52E/MONACOSAT
1 40617U 15023A   23266.48488019  .00000101  00000+0  00000+0 0  9990
2 40617   0.0173 172.8726 0002594   1.0908  54.7035  1.00269746 30824
DIRECTV 15              
1 40663U 15026A   23266.66893296 -.00000106  00000+0  00000+0 0  9997
2 40663   0.0181 115.3451 0000703 298.7649  86.1125  1.00271230 30536
SKY MEXICO-1            
1 40664U 15026B   23266.52480053 -.00000238  00000+0  00000+0 0  9992
2 40664   0.0156 238.1724 0002191 301.5451 292.5638  1.00272306 30530
METEOSAT-11 (MSG-4)     
1 40732U 15034A   23266.76300437  .00000058  00000+0  00000+0 0  9999
2 40732   0.7721  54.9104 0001465 232.5457 358.9273  1.00266171 30006
STAR ONE C4             
1 40733U 15034B   23266.51924598 -.00000268  00000+0  00000+0 0  9997
2 40733   0.0438   6.4267 0002031 212.4410 260.1783  1.00270072 30019
WGS F7 (USA 263)        
1 40746U 15036A   23266.76229772  .00000013  00000+0  00000+0 0  9999
2 40746   0.0163 171.8573 0000019  72.4851 207.4213  1.00269597 29865
INTELSAT 34 (IS-34)     
1 40874U 15039A   23267.03671306 -.00000291  00000+0  00000+0 0  9998
2 40874   0.0478 292.7308 0001487 100.9829 286.6360  1.00271811 29614
EUTELSAT 8 WEST B       
1 40875U 15039B   23266.40129512 -.00000068  00000+0  00000+0 0  9998
2 40875   0.0672 359.2403 0002906 171.0449 328.1643  1.00271215 29647
